GLOBALSTAR M080         
1 38041U 11080B   26201.25333836 -.00000094  00000+0  56610-4 0  9995
2 38041  52.0060 278.3498 0000300  71.9505 321.3937 12.62257606673069
GLOBALSTAR M082         
1 38042U 11080C   26201.02532329 -.00000098  00000+0  34141-4 0  9998
2 38042  52.0052 234.5472 0000189  60.1626 306.6042 12.62264357673745
GLOBALSTAR M092         
1 38043U 11080D   26201.31931571 -.00000083  00000+0  11415-3 0  9995
2 38043  52.0105 324.0500 0000738 111.9825 270.8003 12.62267930672230
GLOBALSTAR M090         
1 38044U 11080E   26200.27627958 -.00000098  00000+0  30166-4 0  9992
2 38044  52.0097 230.7931 0000390  84.5649 355.6327 12.62269627673760
GLOBALSTAR M086         
1 38045U 11080F   26200.36181826 -.00000106  00000+0 -14247-4 0  9995
2 38045  51.9874 230.4091 0001434 117.6917 255.3965 12.62287883673726
GLOBALSTAR M097         
1 39072U 13005A   26201.10344019 -.00000100  00000+0  19913-4 0  9991
2 39072  52.0033 143.1347 0000537  45.2997 314.7913 12.62271277621060
GLOBALSTAR M093         
1 39073U 13005B   26201.23506305 -.00000085  00000+0  10529-3 0  9999
2 39073  52.0098 136.0940 0000768  51.3390 308.7545 12.62266397621031
GLOBALSTAR M094         
1 39074U 13005C   26200.99737041 -.00000098  00000+0  32314-4 0  9996
2 39074  51.9969  50.9021 0001040  70.4392 289.6587 12.62264286622612
GLOBALSTAR M096         
1 39075U 13005D   26201.16926256 -.00000087  00000+0  94130-4 0  9997
2 39075  52.0076  99.2062 0000829  51.6907 308.4034 12.62265831621558
GLOBALSTAR M078         
1 39076U 13005E   26201.14240656 -.00000107  00000+0 -19128-4 0  9997
2 39076  51.9847 183.2524 0000952 352.4849   7.6003 12.62260097620174
GLOBALSTAR M095         
1 39077U 13005F   26201.08989124 -.00000108  00000+0 -24998-4 0  9993
2 39077  52.0054 181.0622 0000566  21.0645 339.0245 12.62264082620028
GLOBALSTAR M087         
1 52888U 22064A   26201.26134963 -.00000084  00000+0  10867-3 0  9997
2 52888  52.0016 321.7609 0000898  90.8689 269.2281 12.62269453195319
